[{"OBJECT_NAME":"ICEYE-X7","OBJECT_ID":"2020-068L","EPOCH":"2026-03-09T22:52:28.702272","MEAN_MOTION":15.29152508,"ECCENTRICITY":0.00068409,"INCLINATION":97.7412,"RA_OF_ASC_NODE":31.2076,"ARG_OF_PERICENTER":332.3045,"MEAN_ANOMALY":27.7829,"EPHEMERIS_TYPE":0,"CLASSIFICATION_TYPE":"U","NORAD_CAT_ID":46496,"ELEMENT_SET_NO":999,"REV_AT_EPOCH":29961,"BSTAR":0.0005654802,"MEAN_MOTION_DOT":0.00015947,"MEAN_MOTION_DDOT":0},{"OBJECT_NAME":"STARLINK-32483","OBJECT_ID":"2024-202M","EPOCH":"2026-03-09T12:33:50.280768","MEAN_MOTION":15.27569381,"ECCENTRICITY":0.00013231,"INCLINATION":43.0034,"RA_OF_ASC_NODE":238.8052,"ARG_OF_PERICENTER":272.4638,"MEAN_ANOMALY":87.6062,"EPHEMERIS_TYPE":0,"CLASSIFICATION_TYPE":"U","NORAD_CAT_ID":61856,"ELEMENT_SET_NO":999,"REV_AT_EPOCH":7531,"BSTAR":2.5849135e-5,"MEAN_MOTION_DOT":4.49e-6,"MEAN_MOTION_DDOT":0}]
